OBJECT_NAME,OBJECT_ID,EPOCH,MEAN_MOTION,ECCENTRICITY,INCLINATION,RA_OF_ASC_NODE,ARG_OF_PERICENTER,MEAN_ANOMALY,EPHEMERIS_TYPE,CLASSIFICATION_TYPE,NORAD_CAT_ID,ELEMENT_SET_NO,REV_AT_EPOCH,BSTAR,MEAN_MOTION_DOT,MEAN_MOTION_DDOT
SAUDISAT 2,2004-025F,2026-07-06T22:46:15.147552,14.56695117,.00236555,98.5514,188.4419,234.4243,125.4749,0,U,28371,999,16862,.5855859E-4,.213E-5,0
COSMOS 2407,2004-028A,2026-07-07T18:53:26.151936,13.76336215,.0038812,82.9593,59.5757,192.8121,239.5304,0,U,28380,999,10271,.20369E-4,.35E-6,0
COSMOS 2414,2005-002A,2026-07-07T00:01:53.135616,13.87927685,.00386725,82.9487,28.6554,273.0753,86.5986,0,U,28521,999,8656,.24786995E-4,.45E-6,0
INMARSAT 4-F1,2005-009A,2026-07-07T18:00:59.029344,1.00271200,.0002686,5.1936,42.7729,68.5944,262.7006,0,U,28628,999,7787,0,.44E-6,0
SJ-7,2005-024A,2026-07-07T16:08:53.585088,15.21861958,.0014143,97.7282,219.3304,325.5968,34.4350,0,U,28737,999,15114,.21193E-3,.4756E-4,0
CUBESAT XI-V,2005-043F,2026-07-06T21:40:08.857056,14.72686848,.00149336,98.3006,343.9413,139.5987,220.6332,0,U,28895,999,10465,.21205115E-3,.1301E-4,0
HINODE (SOLAR-B),2006-041A,2026-07-07T11:43:26.390496,14.68651378,.00164675,98.0547,204.3417,219.8369,140.1629,0,U,29479,999,5785,.11006042E-3,.592E-5,0
SHIJIAN-6 02B (SJ-6 02B),2006-046B,2026-07-07T20:57:30.472704,15.01428015,.0014315,97.7150,217.8040,0.4392,359.6842,0,U,29506,999,7384,.6212E-4,.742E-5,0
DMSP 5D-3 F17 (USA 191),2006-050A,2026-07-07T17:55:11.506080,14.14995854,.0010181,98.7382,194.8963,4.3553,355.7708,0,U,29522,999,1533,.2448E-4,.4E-7,0
LAPAN-TUBSAT,2007-001A,2026-07-07T20:37:54.050304,14.85969966,.0013405,98.1353,188.5504,115.2163,245.0443,0,U,29709,999,5422,-.19202E-4,-.226E-5,0
HAIYANG-1B,2007-010A,2026-07-07T10:07:09.113664,14.31031939,.00143306,98.3507,169.4831,137.3096,222.9203,0,U,31113,999,353,.45705662E-4,.79E-6,0
COSMO-SKYMED 2,2007-059A,2026-07-07T19:39:42.489792,14.82162669,.0001338,97.8891,12.1184,92.7296,267.4070,0,U,32376,999,506,.48076E-4,.331E-5,0
CARTOSAT-2A,2008-021A,2026-07-07T19:30:34.915968,14.79268944,.0012954,97.7619,236.8166,49.2399,310.9935,0,U,32783,999,98185,.25272E-4,.138E-5,0
CUTE-1.7+APD II (CO-65),2008-021C,2026-07-07T19:08:29.008608,15.09655904,.0007526,97.8287,170.6484,329.8758,30.2036,0,U,32785,999,98830,.18422E-3,.2899E-4,0
SEEDS II (CO-66),2008-021J,2026-07-06T23:27:44.284896,15.33467667,.00020947,97.7526,186.8299,175.3299,184.7963,0,U,32791,999,99032,.41927709E-3,.13488E-3,0
YUBILEINY (RS30),2008-025A,2026-07-07T20:40:59.812032,12.43180588,.0018514,82.5059,342.5781,266.0162,93.8801,0,U,32953,999,82226,.65067E-3,.1E-5,0
FENGYUN 3A,2008-026A,2026-07-07T18:28:01.515936,14.19575488,.0009852,98.6886,129.2180,71.0825,289.1419,0,U,32958,999,93832,.44996E-4,.52E-6,0
HUANJING 1A (HJ-1A),2008-041A,2026-07-07T20:47:23.839296,14.84039645,.0020672,97.6697,173.9061,71.9081,288.4383,0,U,33320,999,96147,.16307E-3,.1312E-4,0
HUANJING 1B (HJ-1B),2008-041B,2026-07-07T20:16:30.750240,14.83354287,.0037693,97.6532,176.9943,114.3797,246.1359,0,U,33321,999,96147,.51843E-4,.378E-5,0
SHIJIAN-6 03A (SJ-6 03A),2008-053A,2026-07-07T21:20:01.989024,15.17370684,.0009729,97.8406,222.9304,305.7312,54.3015,0,U,33408,999,96610,.12801E-3,.2485E-4,0
SHIJIAN-6 03B (SJ-6 03B),2008-053B,2026-07-07T20:28:00.539328,15.04370603,.0018588,97.8580,209.0862,336.5344,23.5031,0,U,33409,999,96585,.72677E-4,.952E-5,0
