SAUDISAT 2              
1 28371U 04025F   26187.94878643  .00000213  00000+0  58559-4 0  9996
2 28371  98.5514 188.4419 0023655 234.4243 125.4749 14.56695117168623
COSMOS 2407             
1 28380U 04028A   26188.78710824  .00000035  00000+0  20369-4 0  9998
2 28380  82.9593  59.5757 0038812 192.8121 239.5304 13.76336215102717
COSMOS 2414             
1 28521U 05002A   26188.00130944  .00000045  00000+0  24787-4 0  9991
2 28521  82.9487  28.6554 0038672 273.0753  86.5986 13.87927685 86564
INMARSAT 4-F1           
1 28628U 05009A   26188.75068321  .00000044  00000+0  00000+0 0  9993
2 28628   5.1936  42.7729 0002686  68.5944 262.7006  1.00271200 77876
SJ-7                    
1 28737U 05024A   26188.67284242  .00004756  00000+0  21193-3 0  9998
2 28737  97.7282 219.3304 0014143 325.5968  34.4350 15.21861958151144
CUBESAT XI-V            
1 28895U 05043F   26187.90288029  .00001301  00000+0  21205-3 0  9993
2 28895  98.3006 343.9413 0014933 139.5987 220.6332 14.72686848104657
HINODE (SOLAR-B)        
1 29479U 06041A   26188.48849989  .00000592  00000+0  11006-3 0  9992
2 29479  98.0547 204.3417 0016467 219.8369 140.1629 14.68651378 57856
SHIJIAN-6 02B (SJ-6 02B)
1 29506U 06046B   26188.87326936  .00000742  00000+0  62120-4 0  9994
2 29506  97.7150 217.8040 0014315   0.4392 359.6842 15.01428015 73843
DMSP 5D-3 F17 (USA 191) 
1 29522U 06050A   26188.74666095  .00000004  00000+0  24480-4 0  9994
2 29522  98.7382 194.8963 0010181   4.3553 355.7708 14.14995854 15337
LAPAN-TUBSAT            
1 29709U 07001A   26188.85965336 -.00000226  00000+0 -19202-4 0  9994
2 29709  98.1353 188.5504 0013405 115.2163 245.0443 14.85969966 54229
HAIYANG-1B              
1 31113U 07010A   26188.42163326  .00000079  00000+0  45706-4 0  9990
2 31113  98.3507 169.4831 0014330 137.3096 222.9203 14.31031939  3530
COSMO-SKYMED 2          
1 32376U 07059A   26188.81924178  .00000331  00000+0  48076-4 0  9992
2 32376  97.8891  12.1184 0001338  92.7296 267.4070 14.82162669  5064
CARTOSAT-2A             
1 32783U 08021A   26188.81290412  .00000138  00000+0  25272-4 0  9999
2 32783  97.7619 236.8166 0012954  49.2399 310.9935 14.79268944981858
CUTE-1.7+APD II (CO-65) 
1 32785U 08021C   26188.79755797  .00002899  00000+0  18422-3 0  9994
2 32785  97.8287 170.6484 0007526 329.8758  30.2036 15.09655904988306
SEEDS II (CO-66)        
1 32791U 08021J   26187.97759589  .00013488  00000+0  41928-3 0  9996
2 32791  97.7526 186.8299 0002094 175.3299 184.7963 15.33467667990323
YUBILEINY (RS30)        
1 32953U 08025A   26188.86180338  .00000100  00000+0  65067-3 0  9996
2 32953  82.5059 342.5781 0018514 266.0162  93.8801 12.43180588822264
FENGYUN 3A              
1 32958U 08026A   26188.76946199  .00000052  00000+0  44996-4 0  9991
2 32958  98.6886 129.2180 0009852  71.0825 289.1419 14.19575488938325
HUANJING 1A (HJ-1A)     
1 33320U 08041A   26188.86624814  .00001312  00000+0  16307-3 0  9994
2 33320  97.6697 173.9061 0020672  71.9081 288.4383 14.84039645961474
HUANJING 1B (HJ-1B)     
1 33321U 08041B   26188.84480035  .00000378  00000+0  51843-4 0  9994
2 33321  97.6532 176.9943 0037693 114.3797 246.1359 14.83354287961477
SHIJIAN-6 03A (SJ-6 03A)
1 33408U 08053A   26188.88891191  .00002485  00000+0  12801-3 0  9997
2 33408  97.8406 222.9304 0009729 305.7312  54.3015 15.17370684966106
SHIJIAN-6 03B (SJ-6 03B)
1 33409U 08053B   26188.85278402  .00000952  00000+0  72677-4 0  9994
2 33409  97.8580 209.0862 0018588 336.5344  23.5031 15.04370603965859
